{
    "links": {
        "self": "http://www.neowsapp.com/rest/v1/neo/3748515?api_key=iIulBulltgU6a56xZRHN4H3l9WmuAYTsLGpBGhQ2"
    },
    "id": "3748515",
    "neo_reference_id": "3748515",
    "name": "(2016 FS14)",
    "designation": "2016 FS14",
    "nasa_jpl_url": "http://ssd.jpl.nasa.gov/sbdb.cgi?sstr=3748515",
    "absolute_magnitude_h": 25.2,
    "estimated_diameter": {
        "kilometers": {
            "estimated_diameter_min": 0.0242412481,
            "estimated_diameter_max": 0.0542050786
        },
        "meters": {
            "estimated_diameter_min": 24.2412481101,
            "estimated_diameter_max": 54.2050786336
        },
        "miles": {
            "estimated_diameter_min": 0.0150628086,
            "estimated_diameter_max": 0.0336814639
        },
        "feet": {
            "estimated_diameter_min": 79.5316564495,
            "estimated_diameter_max": 177.8381901842
        }
    },
    "is_potentially_hazardous_asteroid": false,
    "close_approach_data": [
        {
            "close_approach_date": "1952-05-21",
            "close_approach_date_full": "1952-May-21 22:08",
            "epoch_date_close_approach": -555817920000,
            "relative_velocity": {
                "kilometers_per_second": "9.4927501441",
                "kilometers_per_hour": "34173.9005188224",
                "miles_per_hour": "21234.332797376"
            },
            "miss_distance": {
                "astronomical": "1.6922023876",
                "lunar": "658.2667287764",
                "kilometers": "253149872.793874412",
                "miles": "157300036.8544824056"
            },
            "orbiting_body": "Juptr"
        },
        {
            "close_approach_date": "2016-04-14",
            "close_approach_date_full": "2016-Apr-14 16:03",
            "epoch_date_close_approach": 1460649780000,
            "relative_velocity": {
                "kilometers_per_second": "8.2737449675",
                "kilometers_per_hour": "29785.4818828697",
                "miles_per_hour": "18507.5401177198"
            },
            "miss_distance": {
                "astronomical": "0.035275891",
                "lunar": "13.722321599",
                "kilometers": "5277198.15595217",
                "miles": "3279098.880273146"
            },
            "orbiting_body": "Earth"
        }
    ],
    "orbital_data": {
        "orbit_id": "8",
        "orbit_determination_date": "2017-04-06 08:27:02",
        "first_observation_date": "2016-03-31",
        "last_observation_date": "2016-04-14",
        "data_arc_in_days": 14,
        "observations_used": 37,
        "orbit_uncertainty": "7",
        "minimum_orbit_intersection": ".0362439",
        "jupiter_tisserand_invariant": "3.049",
        "epoch_osculation": "2459000.5",
        "eccentricity": ".6220499285712313",
        "semi_major_axis": "2.70834524044099",
        "inclination": "3.321999663933688",
        "ascending_node_longitude": "357.2245551105105",
        "orbital_period": "1628.000235231301",
        "perihelion_distance": "1.023619277078438",
        "perihelion_argument": "215.4817075876211",
        "aphelion_distance": "4.393071203803543",
        "perihelion_time": "2459128.070490500099",
        "mean_anomaly": "331.7903133020674",
        "mean_motion": ".2211301891789053",
        "equinox": "J2000",
        "orbit_class": {
            "orbit_class_type": "AMO",
            "orbit_class_description": "Near-Earth asteroid orbits similar to that of 1221 Amor",
            "orbit_class_range": "1.017 AU < q (perihelion) < 1.3 AU"
        }
    },
    "is_sentry_object": false
}